OBJECT_NAME,OBJECT_ID,EPOCH,MEAN_MOTION,ECCENTRICITY,INCLINATION,RA_OF_ASC_NODE,ARG_OF_PERICENTER,MEAN_ANOMALY,EPHEMERIS_TYPE,CLASSIFICATION_TYPE,NORAD_CAT_ID,ELEMENT_SET_NO,REV_AT_EPOCH,BSTAR,MEAN_MOTION_DOT,MEAN_MOTION_DDOT
ONEWEB-0050,2020-020AF,2026-07-06T14:43:10.600896,14.90455053,.0000669,88.9281,230.5725,221.0981,139.0198,0,U,45453,999,34327,.17751E-3,.1751E-4,0
ONEWEB-0034,2020-020AG,2026-07-06T23:29:38.982624,13.11416026,.0001848,87.8888,17.1289,88.6265,271.5075,0,U,45454,999,30518,.15391E-2,.558E-5,0
ONEWEB-0060,2020-020AH,2026-07-06T22:24:43.411392,13.11415701,.0000905,87.8881,17.1342,107.3194,252.8032,0,U,45455,999,30513,-.12796E-2,-.441E-5,0
ONEWEB-0086,2020-020AJ,2026-07-06T21:54:01.418688,13.11415059,.0001538,87.8888,17.1354,114.3516,245.7772,0,U,45456,999,30519,.87371E-3,.322E-5,0
ONEWEB-0088,2020-020AK,2026-07-06T21:22:28.354080,13.11417622,.0001899,87.8897,17.1141,75.3866,284.7473,0,U,45457,999,30512,.98944E-3,.363E-5,0
ONEWEB-0102,2020-100A,2026-07-06T22:56:06.640224,13.12443846,.0001898,87.8953,346.7429,103.4865,256.6475,0,U,47258,999,26732,.56059E-3,.214E-5,0
ONEWEB-0109,2020-100B,2026-07-06T21:18:31.840992,13.12443533,.0001977,87.8964,346.7415,96.9839,263.1514,0,U,47259,999,26714,.1164E-2,.431E-5,0
ONEWEB-0110,2020-100C,2026-07-06T21:57:34.003296,13.12441767,.0001667,87.8963,346.7201,102.6933,257.4382,0,U,47260,999,26731,-.30271E-3,-.96E-6,0
ONEWEB-0111,2020-100D,2026-07-06T22:41:28.107744,13.12443896,.0001741,87.8962,346.7328,93.9455,266.1873,0,U,47261,999,26715,-.32614E-3,-.105E-5,0
ONEWEB-0114,2020-100E,2026-07-06T21:35:35.992032,13.12441837,.000204,87.8965,346.7398,96.6035,263.5326,0,U,47262,999,26710,.99169E-3,.369E-5,0
ONEWEB-0117,2020-100F,2026-07-06T21:23:24.186624,13.12442266,.0001833,87.8961,346.7318,95.6530,264.4808,0,U,47263,999,26711,.11751E-2,.435E-5,0
ONEWEB-0118,2020-100G,2026-07-06T22:12:10.888128,13.12441307,.0002072,87.8962,346.7278,87.3251,272.8115,0,U,47264,999,26731,-.10603E-2,-.369E-5,0
ONEWEB-0119,2020-100H,2026-07-06T22:48:47.210688,13.12443341,.0001856,87.8950,346.7378,94.8040,265.3300,0,U,47265,999,26729,.70348E-4,.38E-6,0
ONEWEB-0120,2020-100J,2026-07-06T21:33:21.483648,13.12441237,.0002032,87.8952,346.7496,96.5970,263.5389,0,U,47266,999,26731,.11089E-2,.412E-5,0
ONEWEB-0121,2020-100K,2026-07-06T21:16:04.846944,13.12442588,.0001533,87.8962,346.7397,92.5694,267.5610,0,U,47267,999,26722,.10612E-2,.394E-5,0
ONEWEB-0122,2020-100L,2026-07-06T22:57:19.156608,13.12444974,.0001905,87.8964,346.7307,99.5934,260.5410,0,U,47268,999,26714,.62746E-3,.238E-5,0
ONEWEB-0123,2020-100M,2026-07-06T22:51:13.250880,13.12443951,.0001901,87.8952,346.7365,91.8132,268.3214,0,U,47269,999,26728,.25563E-3,.105E-5,0
ONEWEB-0124,2020-100N,2026-07-06T22:36:34.784064,13.12443431,.0001744,87.8951,346.7411,92.7396,267.3932,0,U,47270,999,26716,-.76947E-3,-.264E-5,0
ONEWEB-0125,2020-100P,2026-07-06T22:04:51.894912,13.12441636,.0001692,87.8963,346.7312,85.0159,275.1162,0,U,47271,999,26722,-.66654E-3,-.227E-5,0
ONEWEB-0126,2020-100Q,2026-07-06T22:34:21.182016,13.12442961,.0001964,87.8955,346.7416,94.9298,265.2055,0,U,47272,999,26729,-.864E-3,-.298E-5,0
ONEWEB-0127,2020-100R,2026-07-06T21:45:21.606048,13.12441648,.0001969,87.8950,346.7461,96.5513,263.5840,0,U,47273,999,26731,.44062E-3,.171E-5,0
ONEWEB-0128,2020-100S,2026-07-06T22:17:03.734880,13.12442857,.0001629,87.8949,346.7554,102.6011,257.5299,0,U,47274,999,26733,-.11234E-2,-.391E-5,0
ONEWEB-0129,2020-100T,2026-07-06T21:47:47.589216,13.12440981,.0002928,87.8962,346.7351,100.6755,259.4704,0,U,47275,999,26726,.2993E-3,.12E-5,0
ONEWEB-0130,2020-100U,2026-07-06T22:26:49.490592,13.12442786,.0001875,87.8959,346.7260,98.0001,262.1340,0,U,47276,999,26723,-.10505E-2,-.365E-5,0
ONEWEB-0131,2020-100V,2026-07-06T22:21:56.725920,13.12442200,.0001751,87.8952,346.7425,99.6265,260.5061,0,U,47277,999,26727,-.13061E-2,-.457E-5,0
ONEWEB-0132,2020-100W,2026-07-06T21:13:38.461152,13.12442796,.0001795,87.8954,346.7541,96.4365,263.6968,0,U,47278,999,26716,.97033E-3,.362E-5,0
ONEWEB-0133,2020-100X,2026-07-06T21:37:50.263680,13.12442475,.0001731,87.8966,346.7288,99.1271,261.0054,0,U,47279,999,26732,.94047E-3,.351E-5,0
ONEWEB-0134,2020-100Y,2026-07-06T22:43:53.922432,13.12443112,.000195,87.8965,346.7170,102.3520,257.7827,0,U,47280,999,26730,-.39531E-3,-.129E-5,0
ONEWEB-0135,2020-100Z,2026-07-06T22:02:25.522080,13.12441799,.0001848,87.8953,346.7432,103.8293,256.3041,0,U,47281,999,26732,-.5429E-3,-.183E-5,0
ONEWEB-0136,2020-100AA,2026-07-06T22:29:15.497088,13.12443113,.0001991,87.8961,346.7225,103.6300,256.5050,0,U,47282,999,26725,-.1045E-2,-.363E-5,0
ONEWEB-0137,2020-100AB,2026-07-06T21:28:17.029056,13.12442690,.0001867,87.8965,346.7416,90.3986,269.7356,0,U,47283,999,26715,.1179E-2,.437E-5,0
ONEWEB-0138,2020-100AC,2026-07-06T22:46:20.697024,13.12443644,.0002001,87.8963,346.7355,99.5342,260.6013,0,U,47284,999,26724,-.38746E-3,-.127E-5,0
ONEWEB-0139,2020-100AD,2026-07-06T21:55:19.188192,13.12441158,.0001899,87.8962,346.7287,95.1834,264.9511,0,U,47285,999,26731,-.19126E-3,-.56E-6,0
ONEWEB-0140,2020-100AE,2026-07-06T22:39:01.245024,13.12443568,.0001702,87.8964,346.7140,97.0250,263.1072,0,U,47286,999,26728,-.66199E-3,-.225E-5,0
ONEWEB-0141,2020-100AF,2026-07-06T21:54:54.665280,13.12441863,.000197,87.8963,346.7246,86.8217,273.3136,0,U,47287,999,26726,-.10296E-3,-.24E-6,0
ONEWEB-0142,2020-100AG,2026-07-06T21:38:15.007776,13.12443128,.000223,87.8957,346.7476,91.2343,268.9041,0,U,47288,999,26725,.82465E-3,.309E-5,0
ONEWEB-0143,2020-100AH,2026-07-06T21:52:40.444608,13.12441522,.0001855,87.8959,346.7451,93.6641,266.4700,0,U,47289,999,26723,.23307E-4,.21E-6,0
ONEWEB-0144,2020-100AJ,2026-07-06T21:11:12.364800,13.12442891,.000218,87.8965,346.7258,99.8238,260.3137,0,U,47290,999,26715,.8115E-3,.305E-5,0
ONEWEB-0145,2020-100AK,2026-07-06T22:19:30.086976,13.12442486,.0001922,87.8953,346.7424,95.1908,264.9440,0,U,47291,999,26735,-.11104E-2,-.387E-5,0
ONEWEB-0146,2020-100AL,2026-07-06T22:14:37.474368,13.12442310,.0001491,87.8963,346.7360,93.1257,267.0042,0,U,47292,999,26726,-.10109E-2,-.351E-5,0
ONEWEB-0147,2020-100AM,2026-07-06T21:25:50.847168,13.12442753,.0001812,87.8963,346.7248,99.5405,260.5928,0,U,47293,999,26715,.12613E-2,.466E-5,0
ONEWEB-0115,2021-025A,2026-07-07T03:13:16.787712,13.13487266,.0001908,87.8974,316.2535,93.2688,266.8659,0,U,48042,999,25621,.40466E-2,.1491E-4,0
ONEWEB-0152,2021-025B,2026-07-06T20:14:01.578048,13.13469104,.0001779,87.8984,316.3089,100.2003,259.9327,0,U,48043,999,25613,-.86099E-3,-.302E-5,0
ONEWEB-0153,2021-025C,2026-07-06T21:32:01.842720,13.13468770,.0001989,87.8975,316.2995,98.8314,261.3040,0,U,48044,999,25613,.48714E-3,.191E-5,0
ONEWEB-0154,2021-025D,2026-07-06T21:27:09.734688,13.13469112,.0001851,87.8982,316.2988,105.0007,255.1327,0,U,48045,999,25609,.81247E-3,.309E-5,0
ONEWEB-0116,2021-025E,2026-07-06T20:33:31.434048,13.13482495,.00018,87.8979,316.3045,100.6236,259.5096,0,U,48046,999,25623,-.72208E-2,-.2624E-4,0
ONEWEB-0150,2021-025F,2026-07-06T21:49:06.074112,13.13468858,.0001955,87.8981,316.2903,93.3998,266.7354,0,U,48047,999,25613,-.5268E-3,-.18E-5,0
ONEWEB-0107,2021-025G,2026-07-06T21:51:33.534720,13.13468912,.0002114,87.8983,316.2861,98.9069,261.2300,0,U,48048,999,25611,.47175E-3,.185E-5,0
ONEWEB-0101,2021-025H,2026-07-06T20:57:55.115712,13.13471322,.0001973,87.8972,316.3073,102.1947,257.9403,0,U,48049,999,25608,.58689E-3,.227E-5,0
ONEWEB-0113,2021-025J,2026-07-06T21:23:51.864000,13.13891777,.0001848,87.8978,316.2119,95.1920,264.9420,0,U,48050,999,25619,.66179E-3,.256E-5,0
ONEWEB-0112,2021-025K,2026-07-06T21:58:50.691072,13.13468751,.0002066,87.8984,316.2835,103.1655,256.9704,0,U,48051,999,25618,-.48964E-3,-.166E-5,0
ONEWEB-0156,2021-025L,2026-07-06T22:11:02.586336,13.13471194,.0002005,87.8982,316.2914,96.6148,263.5210,0,U,48052,999,25616,-.10096E-2,-.356E-5,0
ONEWEB-0161,2021-025M,2026-07-06T21:34:27.957216,13.13468202,.0002086,87.8981,316.2974,97.0878,263.0488,0,U,48053,999,25609,.39089E-3,.155E-5,0
ONEWEB-0158,2021-025N,2026-07-06T20:35:57.278112,13.13469485,.000176,87.8982,316.3033,105.2574,254.8750,0,U,48054,999,25621,-.31933E-3,-.104E-5,0
ONEWEB-0157,2021-025P,2026-07-06T21:12:32.646816,13.13470646,.0002302,87.8979,316.3030,100.0054,260.1335,0,U,48055,999,25615,.96258E-3,.364E-5,0
ONEWEB-0162,2021-025Q,2026-07-06T20:38:12.806880,13.13469962,.0001926,87.8974,316.3081,94.1120,266.0229,0,U,48056,999,25612,-.32469E-3,-.106E-5,0
ONEWEB-0155,2021-025R,2026-07-06T20:48:12.217248,13.13473952,.0002028,87.8978,316.3035,97.9884,262.1475,0,U,48057,999,25626,.11622E-3,.55E-6,0
ONEWEB-0149,2021-025S,2026-07-06T21:19:51.383424,13.13469378,.0001931,87.8980,316.3029,93.0644,267.0706,0,U,48058,999,25607,.86352E-3,.328E-5,0
ONEWEB-0148,2021-025T,2026-07-06T20:26:12.737184,13.13469141,.0002144,87.8973,316.3162,84.2986,275.8388,0,U,48059,999,25619,-.72505E-3,-.252E-5,0
ONEWEB-0160,2021-025U,2026-07-06T17:11:11.814144,13.13468721,.000118,87.8972,316.3390,106.0948,254.0311,0,U,48060,999,25612,-.17001E-3,-.49E-6,0
ONEWEB-0163,2021-025V,2026-07-06T20:28:38.881056,13.13469387,.0002195,87.8982,316.3076,99.9180,260.2197,0,U,48061,999,25626,-.76602E-3,-.267E-5,0
ONEWEB-0159,2021-025W,2026-07-06T20:16:27.647616,13.13469408,.0002158,87.8982,316.3033,100.5970,259.5402,0,U,48062,999,25618,-.75987E-3,-.265E-5,0
ONEWEB-0164,2021-025X,2026-07-06T21:39:20.595744,13.13468578,.0001828,87.8983,316.2981,100.2291,259.9044,0,U,48063,999,25617,.90019E-4,.46E-6,0
ONEWEB-0167,2021-025Y,2026-07-06T20:29:52.791072,13.13469882,.0002362,87.8970,316.3155,112.6877,247.4502,0,U,48064,999,25615,-.71715E-3,-.249E-5,0
ONEWEB-0166,2021-025Z,2026-07-06T21:02:47.348160,13.13470222,.0001941,87.8982,316.2845,97.5807,262.5542,0,U,48065,999,25623,.84764E-3,.322E-5,0
ONEWEB-0151,2021-025AA,2026-07-06T17:25:49.448064,13.13469567,.000194,87.8976,316.3299,102.5820,257.5526,0,U,48066,999,25615,.90406E-3,.343E-5,0
